STARLINK-4437           
1 53506U 22099AT  25212.91947467  .00000164  00000+0  17329-4 0  9996
2 53506  97.6534 333.8843 0000659 159.2429 200.8822 15.01254409163103
STARLINK-4443           
1 53508U 22099AV  25212.91576984 -.00000073  00000+0 -10635-5 0  9995
2 53508  97.6535 333.8853 0001846 194.8475 165.2696 15.01256192162868
STARLINK-4402           
1 53509U 22099AW  25212.91024053 -.00001302  00000+0 -96840-4 0  9998
2 53509  97.6536 333.8726 0002777 171.2424 188.8849 15.01224986162863
STARLINK-4511           
1 53527U 22101A   25212.56471733  .00089250  00000+0  19143-2 0  9999
2 53527  53.2092 319.7048 0004838 348.9451  11.1450 15.43995657163167
STARLINK-4503           
1 53528U 22101B   25212.67019053 -.00000892  00000+0 -37989-4 0  9992
2 53528  53.2194 346.3162 0001335  92.4857 267.6288 15.08836137162797
STARLINK-4478           
1 53529U 22101C   25212.66282969 -.00001026  00000+0 -46385-4 0  9990
2 53529  53.2190 346.3596 0001255  90.9820 269.1316 15.08837840162790
STARLINK-4482           
1 53530U 22101D   25212.67757710 -.00000774  00000+0 -30568-4 0  9999
2 53530  53.2201 346.5054 0001348  95.1261 264.9885 15.08836405162795
STARLINK-4487           
1 53531U 22101E   25212.65914756 -.00000605  00000+0 -19946-4 0  9993
2 53531  53.2191 346.3645 0001211  90.7645 269.3486 15.08836936162799
STARLINK-4483           
1 53532U 22101F   25212.69226587  .00000481  00000+0  48313-4 0  9996
2 53532  53.2195 346.2189 0001202  83.4932 276.6197 15.08845252162807
STARLINK-4493           
1 53533U 22101G   25212.68858925  .00000383  00000+0  42141-4 0  9997
2 53533  53.2198 346.2242 0001352 100.1397 259.9748 15.08841401162807
STARLINK-4138           
1 53535U 22101J   25212.61866630  .00000229  00000+0  32498-4 0  9997
2 53535  53.2201 346.5504 0001339 102.6287 257.4855 15.08840681162797
STARLINK-4053           
1 53536U 22101K   25212.66006626 -.00001622  00000+0 -83888-4 0  9993
2 53536  53.2189 336.2844 0001351  86.3837 273.7310 15.08827395162939
STARLINK-4120           
1 53537U 22101L   25212.68586250  .00001112  00000+0  87912-4 0  9996
2 53537  53.2201 346.2197 0001244  90.7401 269.3733 15.08840398162808
STARLINK-4118           
1 53538U 22101M   25212.66373357  .00002358  00000+0  16614-3 0  9990
2 53538  53.2195 336.3465 0001298  84.2246 275.8894 15.08858139162939
STARLINK-4123           
1 53539U 22101N   25212.68123236  .00000025  00000+0  19658-4 0  9993
2 53539  53.2191 346.2696 0001285  98.0578 262.0560 15.08837071162805
STARLINK-4486           
1 53540U 22101P   25212.62794192  .00000303  00000+0  37103-4 0  9998
2 53540  53.2199 336.8651 0001304  84.4356 275.6785 15.08843650163615
STARLINK-4485           
1 53541U 22101Q   25212.67386448  .00000439  00000+0  45642-4 0  9992
2 53541  53.2192 346.3007 0001344  79.7748 280.3396 15.08839468163495
