[{"OBJECT_NAME":"STARLINK-4437","OBJECT_ID":"2022-099AT","EPOCH":"2025-07-31T22:04:02.611488","MEAN_MOTION":15.01254409,"ECCENTRICITY":6.59e-5,"INCLINATION":97.6534,"RA_OF_ASC_NODE":333.8843,"ARG_OF_PERICENTER":159.2429,"MEAN_ANOMALY":200.8822,"EPHEMERIS_TYPE":0,"CLASSIFICATION_TYPE":"U","NORAD_CAT_ID":53506,"ELEMENT_SET_NO":999,"REV_AT_EPOCH":16310,"BSTAR":1.7329e-5,"MEAN_MOTION_DOT":1.64e-6,"MEAN_MOTION_DDOT":0},{"OBJECT_NAME":"STARLINK-4443","OBJECT_ID":"2022-099AV","EPOCH":"2025-07-31T21:58:42.514176","MEAN_MOTION":15.01256192,"ECCENTRICITY":0.0001846,"INCLINATION":97.6535,"RA_OF_ASC_NODE":333.8853,"ARG_OF_PERICENTER":194.8475,"MEAN_ANOMALY":165.2696,"EPHEMERIS_TYPE":0,"CLASSIFICATION_TYPE":"U","NORAD_CAT_ID":53508,"ELEMENT_SET_NO":999,"REV_AT_EPOCH":16286,"BSTAR":-1.0635e-6,"MEAN_MOTION_DOT":-7.3e-7,"MEAN_MOTION_DDOT":0},{"OBJECT_NAME":"STARLINK-4402","OBJECT_ID":"2022-099AW","EPOCH":"2025-07-31T21:50:44.781792","MEAN_MOTION":15.01224986,"ECCENTRICITY":0.0002777,"INCLINATION":97.6536,"RA_OF_ASC_NODE":333.8726,"ARG_OF_PERICENTER":171.2424,"MEAN_ANOMALY":188.8849,"EPHEMERIS_TYPE":0,"CLASSIFICATION_TYPE":"U","NORAD_CAT_ID":53509,"ELEMENT_SET_NO":999,"REV_AT_EPOCH":16286,"BSTAR":-9.684e-5,"MEAN_MOTION_DOT":-1.302e-5,"MEAN_MOTION_DDOT":0},{"OBJECT_NAME":"STARLINK-4511","OBJECT_ID":"2022-101A","EPOCH":"2025-07-31T13:33:11.577312","MEAN_MOTION":15.43995657,"ECCENTRICITY":0.0004838,"INCLINATION":53.2092,"RA_OF_ASC_NODE":319.7048,"ARG_OF_PERICENTER":348.9451,"MEAN_ANOMALY":11.145,"EPHEMERIS_TYPE":0,"CLASSIFICATION_TYPE":"U","NORAD_CAT_ID":53527,"ELEMENT_SET_NO":999,"REV_AT_EPOCH":16316,"BSTAR":0.0019143,"MEAN_MOTION_DOT":0.0008925,"MEAN_MOTION_DDOT":0},{"OBJECT_NAME":"STARLINK-4503","OBJECT_ID":"2022-101B","EPOCH":"2025-07-31T16:05:04.461792","MEAN_MOTION":15.08836137,"ECCENTRICITY":0.0001335,"INCLINATION":53.2194,"RA_OF_ASC_NODE":346.3162,"ARG_OF_PERICENTER":92.4857,"MEAN_ANOMALY":267.6288,"EPHEMERIS_TYPE":0,"CLASSIFICATION_TYPE":"U","NORAD_CAT_ID":53528,"ELEMENT_SET_NO":999,"REV_AT_EPOCH":16279,"BSTAR":-3.7989e-5,"MEAN_MOTION_DOT":-8.92e-6,"MEAN_MOTION_DDOT":0},{"OBJECT_NAME":"STARLINK-4478","OBJECT_ID":"2022-101C","EPOCH":"2025-07-31T15:54:28.485216","MEAN_MOTION":15.0883784,"ECCENTRICITY":0.0001255,"INCLINATION":53.219,"RA_OF_ASC_NODE":346.3596,"ARG_OF_PERICENTER":90.982,"MEAN_ANOMALY":269.1316,"EPHEMERIS_TYPE":0,"CLASSIFICATION_TYPE":"U","NORAD_CAT_ID":53529,"ELEMENT_SET_NO":999,"REV_AT_EPOCH":16279,"BSTAR":-4.6385e-5,"MEAN_MOTION_DOT":-1.026e-5,"MEAN_MOTION_DDOT":0},{"OBJECT_NAME":"STARLINK-4482","OBJECT_ID":"2022-101D","EPOCH":"2025-07-31T16:15:42.661440","MEAN_MOTION":15.08836405,"ECCENTRICITY":0.0001348,"INCLINATION":53.2201,"RA_OF_ASC_NODE":346.5054,"ARG_OF_PERICENTER":95.1261,"MEAN_ANOMALY":264.9885,"EPHEMERIS_TYPE":0,"CLASSIFICATION_TYPE":"U","NORAD_CAT_ID":53530,"ELEMENT_SET_NO":999,"REV_AT_EPOCH":16279,"BSTAR":-3.0568e-5,"MEAN_MOTION_DOT":-7.74e-6,"MEAN_MOTION_DDOT":0},{"OBJECT_NAME":"STARLINK-4487","OBJECT_ID":"2022-101E","EPOCH":"2025-07-31T15:49:10.349184","MEAN_MOTION":15.08836936,"ECCENTRICITY":0.0001211,"INCLINATION":53.2191,"RA_OF_ASC_NODE":346.3645,"ARG_OF_PERICENTER":90.7645,"MEAN_ANOMALY":269.3486,"EPHEMERIS_TYPE":0,"CLASSIFICATION_TYPE":"U","NORAD_CAT_ID":53531,"ELEMENT_SET_NO":999,"REV_AT_EPOCH":16279,"BSTAR":-1.9946e-5,"MEAN_MOTION_DOT":-6.05e-6,"MEAN_MOTION_DDOT":0},{"OBJECT_NAME":"STARLINK-4483","OBJECT_ID":"2022-101F","EPOCH":"2025-07-31T16:36:51.771168","MEAN_MOTION":15.08845252,"ECCENTRICITY":0.0001202,"INCLINATION":53.2195,"RA_OF_ASC_NODE":346.2189,"ARG_OF_PERICENTER":83.4932,"MEAN_ANOMALY":276.6197,"EPHEMERIS_TYPE":0,"CLASSIFICATION_TYPE":"U","NORAD_CAT_ID":53532,"ELEMENT_SET_NO":999,"REV_AT_EPOCH":16280,"BSTAR":4.8313e-5,"MEAN_MOTION_DOT":4.81e-6,"MEAN_MOTION_DDOT":0},{"OBJECT_NAME":"STARLINK-4493","OBJECT_ID":"2022-101G","EPOCH":"2025-07-31T16:31:34.111200","MEAN_MOTION":15.08841401,"ECCENTRICITY":0.0001352,"INCLINATION":53.2198,"RA_OF_ASC_NODE":346.2242,"ARG_OF_PERICENTER":100.1397,"MEAN_ANOMALY":259.9748,"EPHEMERIS_TYPE":0,"CLASSIFICATION_TYPE":"U","NORAD_CAT_ID":53533,"ELEMENT_SET_NO":999,"REV_AT_EPOCH":16280,"BSTAR":4.2141e-5,"MEAN_MOTION_DOT":3.83e-6,"MEAN_MOTION_DDOT":0},{"OBJECT_NAME":"STARLINK-4138","OBJECT_ID":"2022-101J","EPOCH":"2025-07-31T14:50:52.768320","MEAN_MOTION":15.08840681,"ECCENTRICITY":0.0001339,"INCLINATION":53.2201,"RA_OF_ASC_NODE":346.5504,"ARG_OF_PERICENTER":102.6287,"MEAN_ANOMALY":257.4855,"EPHEMERIS_TYPE":0,"CLASSIFICATION_TYPE":"U","NORAD_CAT_ID":53535,"ELEMENT_SET_NO":999,"REV_AT_EPOCH":16279,"BSTAR":3.2498e-5,"MEAN_MOTION_DOT":2.29e-6,"MEAN_MOTION_DDOT":0},{"OBJECT_NAME":"STARLINK-4053","OBJECT_ID":"2022-101K","EPOCH":"2025-07-31T15:50:29.724864","MEAN_MOTION":15.08827395,"ECCENTRICITY":0.0001351,"INCLINATION":53.2189,"RA_OF_ASC_NODE":336.2844,"ARG_OF_PERICENTER":86.3837,"MEAN_ANOMALY":273.731,"EPHEMERIS_TYPE":0,"CLASSIFICATION_TYPE":"U","NORAD_CAT_ID":53536,"ELEMENT_SET_NO":999,"REV_AT_EPOCH":16293,"BSTAR":-8.3888e-5,"MEAN_MOTION_DOT":-1.622e-5,"MEAN_MOTION_DDOT":0},{"OBJECT_NAME":"STARLINK-4120","OBJECT_ID":"2022-101L","EPOCH":"2025-07-31T16:27:38.520000","MEAN_MOTION":15.08840398,"ECCENTRICITY":0.0001244,"INCLINATION":53.2201,"RA_OF_ASC_NODE":346.2197,"ARG_OF_PERICENTER":90.7401,"MEAN_ANOMALY":269.3733,"EPHEMERIS_TYPE":0,"CLASSIFICATION_TYPE":"U","NORAD_CAT_ID":53537,"ELEMENT_SET_NO":999,"REV_AT_EPOCH":16280,"BSTAR":8.7912e-5,"MEAN_MOTION_DOT":1.112e-5,"MEAN_MOTION_DDOT":0},{"OBJECT_NAME":"STARLINK-4118","OBJECT_ID":"2022-101M","EPOCH":"2025-07-31T15:55:46.580448","MEAN_MOTION":15.08858139,"ECCENTRICITY":0.0001298,"INCLINATION":53.2195,"RA_OF_ASC_NODE":336.3465,"ARG_OF_PERICENTER":84.2246,"MEAN_ANOMALY":275.8894,"EPHEMERIS_TYPE":0,"CLASSIFICATION_TYPE":"U","NORAD_CAT_ID":53538,"ELEMENT_SET_NO":999,"REV_AT_EPOCH":16293,"BSTAR":0.00016614,"MEAN_MOTION_DOT":2.358e-5,"MEAN_MOTION_DDOT":0},{"OBJECT_NAME":"STARLINK-4123","OBJECT_ID":"2022-101N","EPOCH":"2025-07-31T16:20:58.475904","MEAN_MOTION":15.08837071,"ECCENTRICITY":0.0001285,"INCLINATION":53.2191,"RA_OF_ASC_NODE":346.2696,"ARG_OF_PERICENTER":98.0578,"MEAN_ANOMALY":262.056,"EPHEMERIS_TYPE":0,"CLASSIFICATION_TYPE":"U","NORAD_CAT_ID":53539,"ELEMENT_SET_NO":999,"REV_AT_EPOCH":16280,"BSTAR":1.9658e-5,"MEAN_MOTION_DOT":2.5e-7,"MEAN_MOTION_DDOT":0},{"OBJECT_NAME":"STARLINK-4486","OBJECT_ID":"2022-101P","EPOCH":"2025-07-31T15:04:14.181888","MEAN_MOTION":15.0884365,"ECCENTRICITY":0.0001304,"INCLINATION":53.2199,"RA_OF_ASC_NODE":336.8651,"ARG_OF_PERICENTER":84.4356,"MEAN_ANOMALY":275.6785,"EPHEMERIS_TYPE":0,"CLASSIFICATION_TYPE":"U","NORAD_CAT_ID":53540,"ELEMENT_SET_NO":999,"REV_AT_EPOCH":16361,"BSTAR":3.7103e-5,"MEAN_MOTION_DOT":3.03e-6,"MEAN_MOTION_DDOT":0},{"OBJECT_NAME":"STARLINK-4485","OBJECT_ID":"2022-101Q","EPOCH":"2025-07-31T16:10:21.891072","MEAN_MOTION":15.08839468,"ECCENTRICITY":0.0001344,"INCLINATION":53.2192,"RA_OF_ASC_NODE":346.3007,"ARG_OF_PERICENTER":79.7748,"MEAN_ANOMALY":280.3396,"EPHEMERIS_TYPE":0,"CLASSIFICATION_TYPE":"U","NORAD_CAT_ID":53541,"ELEMENT_SET_NO":999,"REV_AT_EPOCH":16349,"BSTAR":4.5642e-5,"MEAN_MOTION_DOT":4.39e-6,"MEAN_MOTION_DDOT":0}]
